STARLINK-31691          
1 59856U 24097X   26068.83431115 -.00001985  00000+0 -62593-4 0  9996
2 59856  43.0044 273.1300 0001941 276.3289  83.7342 15.27587247101948
2025-313BE              
1 67482U 25313BE  26068.69721505  .00077178  00000+0  26504-2 0  9996
2 67482  97.3989 145.3568 0007208 335.3714  24.7181 15.29801687  7972
